{
  "norad_id": 68680,
  "name": "STARLINK-37306",
  "history": [
    {
      "epoch": "2026-04-22T09:46:19.766208Z",
      "apogee_km": 336.7842092836527,
      "perigee_km": 336.2709403235549,
      "latitude_deg": -8.474376778975023e-06,
      "longitude_deg": -13.575360359718719,
      "height_km": 339.52108730380064,
      "semi_major_axis_km": 6714.6645748036035,
      "eccentricity": 3.822e-05,
      "inclination_deg": 97.2827,
      "raan_deg": 343.4762,
      "arg_perigee_deg": 46.0966,
      "mean_anomaly_deg": 314.0332,
      "mean_motion_rev_day": 15.77852048
    }
  ]
}