STARLINK-37306          
1 68680U 26077U   26112.40717322 -.00766546  00000+0 -49948-2 0  9999
2 68680  97.2827 343.4762 0000382  46.0966 314.0332 15.77852048  1798
